[{"OBJECT_NAME":"GEESAT-3 07","OBJECT_ID":"2024-159G","EPOCH":"2026-03-09T22:01:38.218944","MEAN_MOTION":14.83815834,"ECCENTRICITY":0.00111185,"INCLINATION":49.9922,"RA_OF_ASC_NODE":183.3196,"ARG_OF_PERICENTER":11.1961,"MEAN_ANOMALY":348.9223,"EPHEMERIS_TYPE":0,"CLASSIFICATION_TYPE":"U","NORAD_CAT_ID":61017,"ELEMENT_SET_NO":999,"REV_AT_EPOCH":8140,"BSTAR":0.00040817534,"MEAN_MOTION_DOT":3.195e-5,"MEAN_MOTION_DDOT":0},{"OBJECT_NAME":"CZ-4B DEB","OBJECT_ID":"1999-057SK","EPOCH":"2026-03-06T05:57:49.055616","MEAN_MOTION":14.76602797,"ECCENTRICITY":0.00698326,"INCLINATION":98.5391,"RA_OF_ASC_NODE":176.1702,"ARG_OF_PERICENTER":278.2505,"MEAN_ANOMALY":111.4922,"EPHEMERIS_TYPE":0,"CLASSIFICATION_TYPE":"U","NORAD_CAT_ID":35331,"ELEMENT_SET_NO":999,"REV_AT_EPOCH":64304,"BSTAR":0.0017455011,"MEAN_MOTION_DOT":0.00012645,"MEAN_MOTION_DDOT":0}]
